IRIDIUM 7 [-]           
1 24793U 97020B   24109.68723165  .00000915  00000+0  31363-3 0  9990
2 24793  86.4003 354.7529 0002428  86.4756 273.6718 14.35159904411219
IRIDIUM 5 [-]           
1 24795U 97020D   24109.47862902  .00011611  00000+0  11295-2 0  9998
2 24795  86.3875 278.2734 0122450 213.6545 145.6863 14.86896710422190
IRIDIUM 4 [-]           
1 24796U 97020E   24109.73235062  .00001004  00000+0  33855-3 0  9991
2 24796  86.3995 351.8955 0002229  89.8216 270.3236 14.36081957411569
IRIDIUM 914 [-]         
1 24836U 97030A   24109.78306518  .00001181  00000+0  36945-3 0  9996
2 24836  86.3985   1.7167 0002736 127.8415 232.3032 14.39929231408136
IRIDIUM 16 [-]          
1 24841U 97030F   24109.53277655  .00001304  00000+0  42658-3 0  9999
2 24841  86.4087  23.6311 0003629  53.0927 307.0603 14.37820252405963
IRIDIUM 911 [-]         
1 24842U 97030G   24109.26202422  .00001697  00000+0  46613-3 0  9990
2 24842  86.4513  22.9226 0016566  75.7519 284.5522 14.46431009413637
IRIDIUM 17 [-]          
1 24870U 97034B   24109.39464503  .00001465  00000+0  48891-3 0  9992
2 24870  86.3971  53.2940 0001991  41.3282 318.8066 14.36906412402565
IRIDIUM 920 [-]         
1 24871U 97034C   24109.83538587  .00001382  00000+0  42679-3 0  9992
2 24871  86.4019  33.3290 0013293  48.5009 311.7329 14.40632583405726
